IRIDIUM 63              
1 25286U 98021B   26005.51565105  .00000638  00000+0  20962-3 0  9992
2 25286  86.3986 357.2350 0002100  82.4263 277.7173 14.36760080452895
IRIDIUM 69              
1 25319U 98026A   26005.52922113  .00000639  00000+0  19192-3 0  9995
2 25319  86.3971   9.8781 0004536  81.8931 278.2783 14.41242619452201
IRIDIUM 71              
1 25320U 98026B   26005.51438883  .00000492  00000+0  14582-3 0  9997
2 25320  86.3974   4.5555 0003854 114.2720 245.8883 14.41336556452739
IRIDIUM 73              
1 25344U 98032C   26005.62325108  .00001042  00000+0  25275-3 0  9990
2 25344  86.4426 320.8393 0002701  73.5613 286.5889 14.52031512459933
IRIDIUM 82              
1 25467U 98051A   26005.50633427  .00056292  00000+0  97118-3 0  9992
2 25467  86.3589   9.1191 0055740 238.0903 121.4927 15.49027275455071
